{
"type": "FeatureCollection",
"name": "sensor_locations_clean",
"crs": { "type": "name", "properties": { "name": "urn:ogc:def:crs:OGC:1.3:CRS84" } },
"features": [
{ "type": "Feature", "properties": { "location_id": 1, "sensor_name": "Bou292_T", "street_or_desc": "Bourke Street Mall (North)", "installation_date": "2009-03-24T00:00:00", "direction_1": "East", "direction_2": "West", "status": "A", "lat": -37.81349441, "lon": 144.96515323 }, "geometry": { "type": "Point", "coordinates": [ 144.96515323, -37.81349441 ] } },
{ "type": "Feature", "properties": { "location_id": 4, "sensor_name": "Swa123_T", "street_or_desc": "Town Hall (West)", "installation_date": "2009-03-23T00:00:00", "direction_1": "North", "direction_2": "South", "status": "A", "lat": -37.81487988, "lon": 144.9660878 }, "geometry": { "type": "Point", "coordinates": [ 144.9660878, -37.81487988 ] } },
{ "type": "Feature", "properties": { "location_id": 10, "sensor_name": "BouHbr_T", "street_or_desc": "Victoria Point", "installation_date": "2009-04-23T00:00:00", "direction_1": "East", "direction_2": "West", "status": "A", "lat": -37.81876474, "lon": 144.94710545000001 }, "geometry": { "type": "Point", "coordinates": [ 144.94710545, -37.81876474 ] } },
{ "type": "Feature", "properties": { "location_id": 11, "sensor_name": "WatCit_T", "street_or_desc": "Waterfront City", "installation_date": "2009-01-20T00:00:00", "direction_1": "East", "direction_2": "West", "status": "A", "lat": -37.81564989, "lon": 144.93970694000001 }, "geometry": { "type": "Point", "coordinates": [ 144.93970694, -37.81564989 ] } },
{ "type": "Feature", "properties": { "location_id": 24, "sensor_name": "Col620_T", "street_or_desc": "Spencer St-Collins St (North)", "installation_date": "2013-09-02T00:00:00", "direction_1": "East", "direction_2": "West", "status": "A", "lat": -37.81887963, "lon": 144.95449198 }, "geometry": { "type": "Point", "coordinates": [ 144.95449198, -37.81887963 ] } },
{ "type": "Feature", "properties": { "location_id": 31, "sensor_name": "Lyg161_T", "street_or_desc": "Lygon St (West)", "installation_date": "2013-10-10T00:00:00", "direction_1": "North", "direction_2": "South", "status": "A", "lat": -37.80169681, "lon": 144.96658911 }, "geometry": { "type": "Point", "coordinates": [ 144.96658911, -37.80169681 ] } },
{ "type": "Feature", "properties": { "location_id": 36, "sensor_name": "Que85_T", "street_or_desc": "Queen St (West)", "installation_date": "2015-01-20T00:00:00", "direction_1": "North", "direction_2": "South", "status": "A", "lat": -37.81652527, "lon": 144.96121062 }, "geometry": { "type": "Point", "coordinates": [ 144.96121062, -37.81652527 ] } },
{ "type": "Feature", "properties": { "location_id": 39, "sensor_name": "AlfPl_T", "street_or_desc": "Alfred Place", "installation_date": "2019-12-04T00:00:00", "direction_1": "North", "direction_2": "South", "status": "A", "lat": -37.81379749, "lon": 144.96995745000001 }, "geometry": { "type": "Point", "coordinates": [ 144.96995745000001, -37.81379749 ] } },
{ "type": "Feature", "properties": { "location_id": 45, "sensor_name": "Swa148_T", "street_or_desc": "Little Collins St-Swanston St (East)", "installation_date": "2017-06-29T00:00:00", "direction_1": "North", "direction_2": "South", "status": "A", "lat": -37.81414075, "lon": 144.96609379 }, "geometry": { "type": "Point", "coordinates": [ 144.96609379, -37.81414075 ] } },
{ "type": "Feature", "properties": { "location_id": 49, "sensor_name": "Eli501_T", "street_or_desc": "QVM-Therry St (South)", "installation_date": "2017-11-29T00:00:00", "direction_1": "East", "direction_2": "West", "status": "A", "lat": -37.80730068, "lon": 144.95956055 }, "geometry": { "type": "Point", "coordinates": [ 144.95956055, -37.80730068 ] } },
{ "type": "Feature", "properties": { "location_id": 58, "sensor_name": "Bou688_T", "street_or_desc": "Bourke St - Spencer St (North)", "installation_date": "2018-09-27T00:00:00", "direction_1": "East", "direction_2": "West", "status": "A", "lat": -37.81686075, "lon": 144.95358075 }, "geometry": { "type": "Point", "coordinates": [ 144.953580749999986, -37.81686075 ] } },
{ "type": "Feature", "properties": { "location_id": 59, "sensor_name": "RMIT_T", "street_or_desc": "Building 80 RMIT", "installation_date": "2019-02-13T00:00:00", "direction_1": "North", "direction_2": "South", "status": "A", "lat": -37.80825648, "lon": 144.96304859 }, "geometry": { "type": "Point", "coordinates": [ 144.96304859, -37.80825648 ] } },
{ "type": "Feature", "properties": { "location_id": 61, "sensor_name": "RMIT14_T", "street_or_desc": "RMIT Building 14", "installation_date": "2019-06-28T00:00:00", "direction_1": "North", "direction_2": "South", "status": "A", "lat": -37.80767455, "lon": 144.96309114 }, "geometry": { "type": "Point", "coordinates": [ 144.963091139999989, -37.80767455 ] } },
{ "type": "Feature", "properties": { "location_id": 62, "sensor_name": "Lat224_T", "street_or_desc": "La Trobe St (North)", "installation_date": "2019-09-25T00:00:00", "direction_1": "East", "direction_2": "West", "status": "A", "lat": -37.80996494, "lon": 144.96216521 }, "geometry": { "type": "Point", "coordinates": [ 144.96216521, -37.80996494 ] } },
{ "type": "Feature", "properties": { "location_id": 65, "sensor_name": "SwaCs_T", "street_or_desc": "Swanston St - City Square", "installation_date": "2020-03-12T00:00:00", "direction_1": "North", "direction_2": "South", "status": "A", "lat": -37.81569416, "lon": 144.9668064 }, "geometry": { "type": "Point", "coordinates": [ 144.9668064, -37.81569416 ] } },
{ "type": "Feature", "properties": { "location_id": 75, "sensor_name": "SprFli_T", "street_or_desc": "Spring St- Flinders st (West)", "installation_date": "2020-12-18T00:00:00", "direction_1": "North", "direction_2": "South", "status": "A", "lat": -37.81515276, "lon": 144.97467661 }, "geometry": { "type": "Point", "coordinates": [ 144.974676609999989, -37.81515276 ] } },
{ "type": "Feature", "properties": { "location_id": 77, "sensor_name": "HarEsP_T", "street_or_desc": "Harbour Esplanade (West) - Pedestrian path", "installation_date": "2021-03-25T00:00:00", "direction_1": "North", "direction_2": "South", "status": "A", "lat": -37.81441438, "lon": 144.94433026 }, "geometry": { "type": "Point", "coordinates": [ 144.944330259999987, -37.81441438 ] } },
{ "type": "Feature", "properties": { "location_id": 79, "sensor_name": "FliSS_T", "street_or_desc": "Flinders St (South)", "installation_date": "2021-09-10T00:00:00", "direction_1": "East", "direction_2": "West", "status": "A", "lat": -37.81794046, "lon": 144.96616678000001 }, "geometry": { "type": "Point", "coordinates": [ 144.96616678, -37.81794046 ] } },
{ "type": "Feature", "properties": { "location_id": 80, "sensor_name": "BoCoR_T", "street_or_desc": "Boyd Commuinty - Rear door", "installation_date": "2021-03-30T00:00:00", "direction_1": null, "direction_2": null, "status": "A", "lat": -37.8254567, "lon": 144.96131206000001 }, "geometry": { "type": "Point", "coordinates": [ 144.961312060000012, -37.8254567 ] } },
{ "type": "Feature", "properties": { "location_id": 83, "sensor_name": "Eli510_T", "street_or_desc": "510 Elizabeth Street", "installation_date": "2021-11-05T00:00:00", "direction_1": null, "direction_2": null, "status": "A", "lat": -37.8067319, "lon": 144.96005113000001 }, "geometry": { "type": "Point", "coordinates": [ 144.960051130000011, -37.8067319 ] } },
{ "type": "Feature", "properties": { "location_id": 84, "sensor_name": "ElFi_T", "street_or_desc": "Elizabeth St - Flinders St (East) - New footpath", "installation_date": "2021-12-03T00:00:00", "direction_1": "North", "direction_2": "South", "status": "A", "lat": -37.81798049, "lon": 144.96503383000001 }, "geometry": { "type": "Point", "coordinates": [ 144.96503383000001, -37.81798049 ] } },
{ "type": "Feature", "properties": { "location_id": 87, "sensor_name": "Errol23_T", "street_or_desc": "Errol St (West)", "installation_date": "2022-05-20T00:00:00", "direction_1": "North", "direction_2": "South", "status": "A", "lat": -37.80454949, "lon": 144.94921863 }, "geometry": { "type": "Point", "coordinates": [ 144.94921863, -37.80454949 ] } },
{ "type": "Feature", "properties": { "location_id": 91, "sensor_name": "DocLib1_T", "street_or_desc": "Library at The Dock-North side", "installation_date": "2015-06-05T00:00:00", "direction_1": null, "direction_2": null, "status": "A", "lat": -37.8200188, "lon": 144.94029861000001 }, "geometry": { "type": "Point", "coordinates": [ 144.940298610000013, -37.8200188 ] } },
{ "type": "Feature", "properties": { "location_id": 94, "sensor_name": "FitConVis_T", "street_or_desc": "Fitzroy Garden- The Conservatory", "installation_date": "2015-03-02T00:00:00", "direction_1": null, "direction_2": null, "status": "A", "lat": -37.81424531, "lon": 144.97851861000001 }, "geometry": { "type": "Point", "coordinates": [ 144.97851861, -37.81424531 ] } },
{ "type": "Feature", "properties": { "location_id": 95, "sensor_name": "FitGarExtVisExt_T", "street_or_desc": "Fitzroy Garden Visitor Centre External", "installation_date": "2015-03-02T00:00:00", "direction_1": null, "direction_2": null, "status": "A", "lat": -37.81488315, "lon": 144.97926569000001 }, "geometry": { "type": "Point", "coordinates": [ 144.97926569, -37.81488315 ] } },
{ "type": "Feature", "properties": { "location_id": 102, "sensor_name": "NtMelLib_T", "street_or_desc": "North Melbourne Library", "installation_date": "2018-02-02T00:00:00", "direction_1": null, "direction_2": null, "status": "A", "lat": -37.80340543, "lon": 144.94977011 }, "geometry": { "type": "Point", "coordinates": [ 144.94977011, -37.80340543 ] } },
{ "type": "Feature", "properties": { "location_id": 103, "sensor_name": "KenTown_T", "street_or_desc": "Kensington Town Hall", "installation_date": "2018-02-02T00:00:00", "direction_1": null, "direction_2": null, "status": "A", "lat": -37.7893527, "lon": 144.9286055 }, "geometry": { "type": "Point", "coordinates": [ 144.9286055, -37.7893527 ] } },
{ "type": "Feature", "properties": { "location_id": 108, "sensor_name": "261Will_T", "street_or_desc": "William St - Little Lonsdale St (West)", "installation_date": "2022-10-08T00:00:00", "direction_1": "North", "direction_2": "South", "status": "A", "lat": -37.81295822, "lon": 144.95678789 }, "geometry": { "type": "Point", "coordinates": [ 144.956787889999987, -37.81295822 ] } },
{ "type": "Feature", "properties": { "location_id": 109, "sensor_name": "LatWill_T", "street_or_desc": "La Trobe St- William St (South)", "installation_date": "2022-10-08T00:00:00", "direction_1": "East", "direction_2": "West", "status": "A", "lat": -37.81193681, "lon": 144.95621105000001 }, "geometry": { "type": "Point", "coordinates": [ 144.95621105, -37.81193681 ] } },
{ "type": "Feature", "properties": { "location_id": 124, "sensor_name": "BirBridge_T", "street_or_desc": "Birrarung Marr East - Batman Ave Bridge Entry", "installation_date": "2023-06-02T00:00:00", "direction_1": "North", "direction_2": "South", "status": "A", "lat": -37.81757416, "lon": 144.97329934000001 }, "geometry": { "type": "Point", "coordinates": [ 144.973299340000011, -37.81757416 ] } },
{ "type": "Feature", "properties": { "location_id": 135, "sensor_name": "Spen161_T", "street_or_desc": "I-Hub Southern Cross Station - Bourke Street Entrance - South", "installation_date": "2023-09-25T00:00:00", "direction_1": "North", "direction_2": "South", "status": "A", "lat": -37.8172861, "lon": 144.95319102 }, "geometry": { "type": "Point", "coordinates": [ 144.95319102, -37.8172861 ] } },
{ "type": "Feature", "properties": { "location_id": 137, "sensor_name": "BouHbr2353_T", "street_or_desc": "COM Pole 2353 - Towards the city, NAB Building", "installation_date": "2023-11-03T00:00:00", "direction_1": "East", "direction_2": "West", "status": "A", "lat": -37.81894815, "lon": 144.94612292 }, "geometry": { "type": "Point", "coordinates": [ 144.94612292, -37.81894815 ] } },
{ "type": "Feature", "properties": { "location_id": 138, "sensor_name": "EntPark1671_T", "street_or_desc": "COM Pole 1671 - Enterprize Park, Queens Bridge", "installation_date": "2023-11-20T00:00:00", "direction_1": "East", "direction_2": "West", "status": "A", "lat": -37.81996544, "lon": 144.95981454 }, "geometry": { "type": "Point", "coordinates": [ 144.95981454, -37.81996544 ] } },
{ "type": "Feature", "properties": { "location_id": 141, "sensor_name": "474Fl_T", "street_or_desc": "Awning of Nationwide Parking 474 Flinders Street", "installation_date": "2023-11-10T00:00:00", "direction_1": "East", "direction_2": "West", "status": "A", "lat": -37.81997273, "lon": 144.95834911 }, "geometry": { "type": "Point", "coordinates": [ 144.95834911, -37.81997273 ] } },
{ "type": "Feature", "properties": { "location_id": 148, "sensor_name": "narrLibMRL2_T", "street_or_desc": "narrm ngarrgu Library - Level 1 - Meeting Room Lift 2", "installation_date": "2023-10-23T00:00:00", "direction_1": null, "direction_2": null, "status": "A", "lat": -37.80772224, "lon": 144.95823515000001 }, "geometry": { "type": "Point", "coordinates": [ 144.95823515, -37.80772224 ] } },
{ "type": "Feature", "properties": { "location_id": 149, "sensor_name": "narrLibL1MA_T", "street_or_desc": "narrm ngarrgu Library - Level 1 Main Stairs A", "installation_date": "2023-10-23T00:00:00", "direction_1": null, "direction_2": null, "status": "A", "lat": -37.80781158, "lon": 144.9582219 }, "geometry": { "type": "Point", "coordinates": [ 144.958221900000012, -37.80781158 ] } },
{ "type": "Feature", "properties": { "location_id": 153, "sensor_name": "narrLibL2S2_T", "street_or_desc": "narrm ngarrgu Library - Level 2 - Study Area Lifts 2", "installation_date": "2023-10-23T00:00:00", "direction_1": null, "direction_2": null, "status": "A", "lat": -37.80780367, "lon": 144.95829765 }, "geometry": { "type": "Point", "coordinates": [ 144.95829765, -37.80780367 ] } },
{ "type": "Feature", "properties": { "location_id": 158, "sensor_name": "Eli514_T", "street_or_desc": "514 Elizebeth Street", "installation_date": "2024-01-29T00:00:00", "direction_1": null, "direction_2": null, "status": "A", "lat": -37.80657467, "lon": 144.96007044000001 }, "geometry": { "type": "Point", "coordinates": [ 144.96007044000001, -37.80657467 ] } },
{ "type": "Feature", "properties": { "location_id": 164, "sensor_name": "Lat526_T", "street_or_desc": "I-Hub 526 La Trobe Street (Footpath)", "installation_date": "2024-08-14T00:00:00", "direction_1": "East", "direction_2": "West", "status": "A", "lat": -37.813005, "lon": 144.95160411000001 }, "geometry": { "type": "Point", "coordinates": [ 144.95160411, -37.813005 ] } },
{ "type": "Feature", "properties": { "location_id": 180, "sensor_name": "Mac330_T", "street_or_desc": "Pumping Station No.2, 330 Macaulay Road", "installation_date": "2025-03-11T00:00:00", "direction_1": "East", "direction_2": "West", "status": "A", "lat": -37.79497059, "lon": 144.93530329000001 }, "geometry": { "type": "Point", "coordinates": [ 144.93530329, -37.79497059 ] } },
{ "type": "Feature", "properties": { "location_id": 185, "sensor_name": "Eli197_T", "street_or_desc": "197 Elizabeth Street", "installation_date": "2025-06-28T00:00:00", "direction_1": "In", "direction_2": "Out", "status": "A", "lat": -37.81374643, "lon": 144.96276183000001 }, "geometry": { "type": "Point", "coordinates": [ 144.96276183, -37.81374643 ] } },
{ "type": "Feature", "properties": { "location_id": 185, "sensor_name": "Eli197_T", "street_or_desc": "197 Elizabeth Street", "installation_date": "2025-06-28T00:00:00", "direction_1": "North", "direction_2": "South", "status": "A", "lat": -37.81374643, "lon": 144.96276183000001 }, "geometry": { "type": "Point", "coordinates": [ 144.96276183, -37.81374643 ] } },
{ "type": "Feature", "properties": { "location_id": 3, "sensor_name": "Swa295_T", "street_or_desc": "Melbourne Central", "installation_date": "2009-03-25T00:00:00", "direction_1": "North", "direction_2": "South", "status": "A", "lat": -37.81101524, "lon": 144.96429485 }, "geometry": { "type": "Point", "coordinates": [ 144.964294849999987, -37.81101524 ] } },
{ "type": "Feature", "properties": { "location_id": 5, "sensor_name": "PriNW_T", "street_or_desc": "Princes Bridge", "installation_date": "2009-03-26T00:00:00", "direction_1": "North", "direction_2": "South", "status": "A", "lat": -37.81874249, "lon": 144.96787656000001 }, "geometry": { "type": "Point", "coordinates": [ 144.96787656, -37.81874249 ] } },
{ "type": "Feature", "properties": { "location_id": 9, "sensor_name": "Col700_T", "street_or_desc": "Southern Cross Station", "installation_date": "2009-03-23T00:00:00", "direction_1": "East", "direction_2": "West", "status": "A", "lat": -37.81982992, "lon": 144.95102555 }, "geometry": { "type": "Point", "coordinates": [ 144.95102555, -37.81982992 ] } },
{ "type": "Feature", "properties": { "location_id": 12, "sensor_name": "NewQ_T", "street_or_desc": "New Quay", "installation_date": "2009-01-21T00:00:00", "direction_1": "East", "direction_2": "West", "status": "A", "lat": -37.81457988, "lon": 144.94292398 }, "geometry": { "type": "Point", "coordinates": [ 144.942923979999989, -37.81457988 ] } },
{ "type": "Feature", "properties": { "location_id": 14, "sensor_name": "SanBri_T", "street_or_desc": "Sandridge Bridge", "installation_date": "2009-03-24T00:00:00", "direction_1": "North", "direction_2": "South", "status": "A", "lat": -37.82011242, "lon": 144.96291897 }, "geometry": { "type": "Point", "coordinates": [ 144.96291897, -37.82011242 ] } },
{ "type": "Feature", "properties": { "location_id": 18, "sensor_name": "Col12_T", "street_or_desc": "Collins Place (North)", "installation_date": "2009-03-30T00:00:00", "direction_1": "East", "direction_2": "West", "status": "A", "lat": -37.81344862, "lon": 144.97305353 }, "geometry": { "type": "Point", "coordinates": [ 144.973053529999987, -37.81344862 ] } },
{ "type": "Feature", "properties": { "location_id": 19, "sensor_name": "LtB210_T", "street_or_desc": "Chinatown-Swanston St (North)", "installation_date": "2013-09-02T00:00:00", "direction_1": "East", "direction_2": "West", "status": "A", "lat": -37.81237202, "lon": 144.96550671 }, "geometry": { "type": "Point", "coordinates": [ 144.96550671, -37.81237202 ] } },
{ "type": "Feature", "properties": { "location_id": 20, "sensor_name": "LtB170_T", "street_or_desc": "Chinatown-Lt Bourke St (South)", "installation_date": "2013-09-06T00:00:00", "direction_1": "East", "direction_2": "West", "status": "A", "lat": -37.81172914, "lon": 144.9682466 }, "geometry": { "type": "Point", "coordinates": [ 144.968246599999986, -37.81172914 ] } },
{ "type": "Feature", "properties": { "location_id": 27, "sensor_name": "Vic_T", "street_or_desc": "QV Market-Peel St", "installation_date": "2013-08-16T00:00:00", "direction_1": "East", "direction_2": "West", "status": "A", "lat": -37.80606888, "lon": 144.95644692 }, "geometry": { "type": "Point", "coordinates": [ 144.95644692, -37.80606888 ] } },
{ "type": "Feature", "properties": { "location_id": 28, "sensor_name": "VAC_T", "street_or_desc": "The Arts Centre", "installation_date": "2013-08-23T00:00:00", "direction_1": "North", "direction_2": "South", "status": "A", "lat": -37.82129925, "lon": 144.96879309 }, "geometry": { "type": "Point", "coordinates": [ 144.96879309, -37.82129925 ] } },
{ "type": "Feature", "properties": { "location_id": 41, "sensor_name": "Swa31", "street_or_desc": "Flinders La-Swanston St (West)", "installation_date": "2017-06-29T00:00:00", "direction_1": "North", "direction_2": "South", "status": "A", "lat": -37.81668634, "lon": 144.96689733 }, "geometry": { "type": "Point", "coordinates": [ 144.96689733, -37.81668634 ] } },
{ "type": "Feature", "properties": { "location_id": 43, "sensor_name": "UM2_T", "street_or_desc": "Monash Rd-Swanston St (West)", "installation_date": "2015-04-15T00:00:00", "direction_1": "North", "direction_2": "South", "status": "A", "lat": -37.79844526, "lon": 144.96411782000001 }, "geometry": { "type": "Point", "coordinates": [ 144.964117820000013, -37.79844526 ] } },
{ "type": "Feature", "properties": { "location_id": 44, "sensor_name": "UM3_T", "street_or_desc": "Tin Alley-Swanston St (West)", "installation_date": "2015-04-15T00:00:00", "direction_1": "North", "direction_2": "South", "status": "A", "lat": -37.79698741, "lon": 144.96441306 }, "geometry": { "type": "Point", "coordinates": [ 144.96441306, -37.79698741 ] } },
{ "type": "Feature", "properties": { "location_id": 46, "sensor_name": "Pel147_T", "street_or_desc": "Pelham St (South)", "installation_date": "2017-07-10T00:00:00", "direction_1": "East", "direction_2": "West", "status": "A", "lat": -37.80240719, "lon": 144.9615673 }, "geometry": { "type": "Point", "coordinates": [ 144.961567300000013, -37.80240719 ] } },
{ "type": "Feature", "properties": { "location_id": 47, "sensor_name": "Eli250_T", "street_or_desc": "Melbourne Central-Elizabeth St (East)", "installation_date": "2017-08-24T00:00:00", "direction_1": "North", "direction_2": "South", "status": "A", "lat": -37.81258467, "lon": 144.9625775 }, "geometry": { "type": "Point", "coordinates": [ 144.9625775, -37.81258467 ] } },
{ "type": "Feature", "properties": { "location_id": 48, "sensor_name": "QVMQ_T", "street_or_desc": "QVM-Queen St (East)", "installation_date": "2017-10-02T00:00:00", "direction_1": "East", "direction_2": "West", "status": "A", "lat": -37.80631581, "lon": 144.95866697 }, "geometry": { "type": "Point", "coordinates": [ 144.95866697, -37.80631581 ] } },
{ "type": "Feature", "properties": { "location_id": 50, "sensor_name": "Lyg309_T", "street_or_desc": "Faraday St-Lygon St (West)", "installation_date": "2017-11-30T00:00:00", "direction_1": "North", "direction_2": "South", "status": "A", "lat": -37.79808192, "lon": 144.96721013000001 }, "geometry": { "type": "Point", "coordinates": [ 144.967210130000012, -37.79808192 ] } },
{ "type": "Feature", "properties": { "location_id": 51, "sensor_name": "Fra118_T", "street_or_desc": "QVM-Franklin St (North)", "installation_date": "2017-11-30T00:00:00", "direction_1": "East", "direction_2": "West", "status": "A", "lat": -37.80841815, "lon": 144.95906316 }, "geometry": { "type": "Point", "coordinates": [ 144.95906316, -37.80841815 ] } },
{ "type": "Feature", "properties": { "location_id": 52, "sensor_name": "Eli263_T", "street_or_desc": "Elizabeth St-Lonsdale St (South)", "installation_date": "2017-07-31T00:00:00", "direction_1": "East", "direction_2": "West", "status": "A", "lat": -37.81252157, "lon": 144.9619401 }, "geometry": { "type": "Point", "coordinates": [ 144.9619401, -37.81252157 ] } },
{ "type": "Feature", "properties": { "location_id": 53, "sensor_name": "Col254_T", "street_or_desc": "Collins Street (North)", "installation_date": "2015-09-23T00:00:00", "direction_1": "East", "direction_2": "West", "status": "A", "lat": -37.81564191, "lon": 144.965499 }, "geometry": { "type": "Point", "coordinates": [ 144.965499, -37.81564191 ] } },
{ "type": "Feature", "properties": { "location_id": 54, "sensor_name": "Swa607_T", "street_or_desc": "Lincoln-Swanston (West)", "installation_date": "2018-06-26T00:00:00", "direction_1": "North", "direction_2": "South", "status": "A", "lat": -37.804024, "lon": 144.96308399 }, "geometry": { "type": "Point", "coordinates": [ 144.96308399, -37.804024 ] } },
{ "type": "Feature", "properties": { "location_id": 55, "sensor_name": "Eli380_T", "street_or_desc": "380 Elizabeth Street", "installation_date": "2018-07-19T00:00:00", "direction_1": null, "direction_2": null, "status": "A", "lat": -37.80988941, "lon": 144.96134331 }, "geometry": { "type": "Point", "coordinates": [ 144.96134331, -37.80988941 ] } },
{ "type": "Feature", "properties": { "location_id": 56, "sensor_name": "Lon364_T", "street_or_desc": "Lonsdale St - Elizabeth St (North)", "installation_date": "2018-07-25T00:00:00", "direction_1": "East", "direction_2": "West", "status": "A", "lat": -37.81234775, "lon": 144.96153311 }, "geometry": { "type": "Point", "coordinates": [ 144.96153311, -37.81234775 ] } },
{ "type": "Feature", "properties": { "location_id": 68, "sensor_name": "FLDegN_T", "street_or_desc": "Flinders Ln -Degraves St (North)", "installation_date": "2020-06-03T00:00:00", "direction_1": "East", "direction_2": "West", "status": "A", "lat": -37.8168479, "lon": 144.96559789 }, "geometry": { "type": "Point", "coordinates": [ 144.96559789, -37.8168479 ] } },
{ "type": "Feature", "properties": { "location_id": 69, "sensor_name": "FLDegC_T", "street_or_desc": "Flinders Ln -Degraves St (Crossing)", "installation_date": "2020-06-03T00:00:00", "direction_1": "North", "direction_2": "South", "status": "A", "lat": -37.81687226, "lon": 144.96559144 }, "geometry": { "type": "Point", "coordinates": [ 144.96559144, -37.81687226 ] } },
{ "type": "Feature", "properties": { "location_id": 72, "sensor_name": "ACMI_T", "street_or_desc": "Flinders St- ACMI", "installation_date": "2020-11-30T00:00:00", "direction_1": "East", "direction_2": "West", "status": "A", "lat": -37.81726338, "lon": 144.96872809000001 }, "geometry": { "type": "Point", "coordinates": [ 144.968728090000013, -37.81726338 ] } },
{ "type": "Feature", "properties": { "location_id": 81, "sensor_name": "BoCoF_T", "street_or_desc": "Boyd Commuinty - Front door", "installation_date": "2021-03-30T00:00:00", "direction_1": null, "direction_2": null, "status": "A", "lat": -37.82579138, "lon": 144.96084343000001 }, "geometry": { "type": "Point", "coordinates": [ 144.960843430000011, -37.82579138 ] } },
{ "type": "Feature", "properties": { "location_id": 82, "sensor_name": "Eli512_T", "street_or_desc": "512 Elizabeth Street", "installation_date": "2021-11-05T00:00:00", "direction_1": null, "direction_2": null, "status": "A", "lat": -37.80667227, "lon": 144.96005554000001 }, "geometry": { "type": "Point", "coordinates": [ 144.960055540000013, -37.80667227 ] } },
{ "type": "Feature", "properties": { "location_id": 85, "sensor_name": "488Mac_T", "street_or_desc": "Macaulay Rd (North)", "installation_date": "2021-12-21T00:00:00", "direction_1": "East", "direction_2": "West", "status": "A", "lat": -37.79432415, "lon": 144.92973378 }, "geometry": { "type": "Point", "coordinates": [ 144.92973378, -37.79432415 ] } },
{ "type": "Feature", "properties": { "location_id": 86, "sensor_name": "574Qub_T", "street_or_desc": "Queensberry St - Errol St (South)", "installation_date": "2021-12-21T00:00:00", "direction_1": "East", "direction_2": "West", "status": "A", "lat": -37.80309992, "lon": 144.94908064000001 }, "geometry": { "type": "Point", "coordinates": [ 144.94908064, -37.80309992 ] } },
{ "type": "Feature", "properties": { "location_id": 89, "sensor_name": "CityLi_T", "street_or_desc": "City Library", "installation_date": "2013-12-11T00:00:00", "direction_1": null, "direction_2": null, "status": "A", "lat": -37.81685964, "lon": 144.96586575000001 }, "geometry": { "type": "Point", "coordinates": [ 144.96586575, -37.81685964 ] } },
{ "type": "Feature", "properties": { "location_id": 90, "sensor_name": "BoCoL_T", "street_or_desc": "Boyd Community Hub- Library", "installation_date": "2015-08-11T00:00:00", "direction_1": null, "direction_2": null, "status": "A", "lat": -37.82556207, "lon": 144.96115421 }, "geometry": { "type": "Point", "coordinates": [ 144.961154209999989, -37.82556207 ] } },
{ "type": "Feature", "properties": { "location_id": 93, "sensor_name": "EastLib_T", "street_or_desc": "East Melbourne Library", "installation_date": "2013-02-02T00:00:00", "direction_1": null, "direction_2": null, "status": "A", "lat": -37.81498411, "lon": 144.98638807 }, "geometry": { "type": "Point", "coordinates": [ 144.98638807, -37.81498411 ] } },
{ "type": "Feature", "properties": { "location_id": 96, "sensor_name": "FitGarVisIInt_T", "street_or_desc": "Fitzroy Garden Visitor Centre Internal", "installation_date": "2015-03-02T00:00:00", "direction_1": null, "direction_2": null, "status": "A", "lat": -37.81499687, "lon": 144.97925064 }, "geometry": { "type": "Point", "coordinates": [ 144.97925064, -37.81499687 ] } },
{ "type": "Feature", "properties": { "location_id": 105, "sensor_name": "KatLib2_T", "street_or_desc": "Kathleen Syme Library Lib", "installation_date": "2018-02-02T00:00:00", "direction_1": null, "direction_2": null, "status": "A", "lat": -37.79861828, "lon": 144.9652825 }, "geometry": { "type": "Point", "coordinates": [ 144.9652825, -37.79861828 ] } },
{ "type": "Feature", "properties": { "location_id": 107, "sensor_name": "280Will_T", "street_or_desc": "Flagstaff station (East)", "installation_date": "2022-10-08T00:00:00", "direction_1": "North", "direction_2": "South", "status": "A", "lat": -37.81246271, "lon": 144.95690188 }, "geometry": { "type": "Point", "coordinates": [ 144.95690188, -37.81246271 ] } },
{ "type": "Feature", "properties": { "location_id": 116, "sensor_name": "FitCafVis_T", "street_or_desc": "Fitzroy Garden Visitor Centre Cafe Verandah", "installation_date": "2015-03-02T00:00:00", "direction_1": null, "direction_2": null, "status": "A", "lat": -37.81493732, "lon": 144.97932442000001 }, "geometry": { "type": "Point", "coordinates": [ 144.979324420000012, -37.81493732 ] } },
{ "type": "Feature", "properties": { "location_id": 117, "sensor_name": "Fli114F_T", "street_or_desc": "114 Flinders Street Car Park Footpath", "installation_date": "2022-12-06T00:00:00", "direction_1": "East", "direction_2": "West", "status": "A", "lat": -37.81629332, "lon": 144.97090877 }, "geometry": { "type": "Point", "coordinates": [ 144.97090877, -37.81629332 ] } },
{ "type": "Feature", "properties": { "location_id": 123, "sensor_name": "BirBridge_T", "street_or_desc": "Birrarung Marr East - Batman Ave Bridge Entry", "installation_date": "2023-06-02T00:00:00", "direction_1": "East", "direction_2": "West", "status": "A", "lat": -37.81753741, "lon": 144.97329734 }, "geometry": { "type": "Point", "coordinates": [ 144.973297339999988, -37.81753741 ] } },
{ "type": "Feature", "properties": { "location_id": 132, "sensor_name": "King335_T", "street_or_desc": "I-Hub Corner of King Street and Latrobe Street (317-335 King)", "installation_date": "2023-09-25T00:00:00", "direction_1": "North", "direction_2": "South", "status": "A", "lat": -37.81267639, "lon": 144.95386444 }, "geometry": { "type": "Point", "coordinates": [ 144.95386444, -37.81267639 ] } },
{ "type": "Feature", "properties": { "location_id": 133, "sensor_name": "Spen229_T", "street_or_desc": "I-Hub Southern Cross Station - Lonsdale Street Entrance - South", "installation_date": "2023-09-25T00:00:00", "direction_1": "North", "direction_2": "South", "status": "A", "lat": -37.81531435, "lon": 144.95227769 }, "geometry": { "type": "Point", "coordinates": [ 144.952277689999988, -37.81531435 ] } },
{ "type": "Feature", "properties": { "location_id": 136, "sensor_name": "BirFed1120_T", "street_or_desc": "COM Pole 1120 - Towards the City, Near Federation Square Bridge", "installation_date": "2023-11-03T00:00:00", "direction_1": "East", "direction_2": "West", "status": "A", "lat": -37.8184141, "lon": 144.97357915000001 }, "geometry": { "type": "Point", "coordinates": [ 144.97357915, -37.8184141 ] } },
{ "type": "Feature", "properties": { "location_id": 139, "sensor_name": "Signal1647_T", "street_or_desc": "COM Pole 1647 - Sandridge Bridge Signal Box", "installation_date": "2023-11-20T00:00:00", "direction_1": "East", "direction_2": "West", "status": "A", "lat": -37.81959923, "lon": 144.9632832 }, "geometry": { "type": "Point", "coordinates": [ 144.9632832, -37.81959923 ] } },
{ "type": "Feature", "properties": { "location_id": 140, "sensor_name": "Boyd2837_T", "street_or_desc": "COM Pole 2837 - Boyd Park", "installation_date": "2023-11-02T00:00:00", "direction_1": "North", "direction_2": "South", "status": "A", "lat": -37.82590962, "lon": 144.96185972000001 }, "geometry": { "type": "Point", "coordinates": [ 144.96185972, -37.82590962 ] } },
{ "type": "Feature", "properties": { "location_id": 142, "sensor_name": "Hammer1584_T", "street_or_desc": "COM Pole 1584 - Hammer Hall Entrance", "installation_date": "2023-11-03T00:00:00", "direction_1": "East", "direction_2": "West", "status": "A", "lat": -37.81970749, "lon": 144.96795734 }, "geometry": { "type": "Point", "coordinates": [ 144.96795734, -37.81970749 ] } },
{ "type": "Feature", "properties": { "location_id": 144, "sensor_name": "narrLibL1L1_T", "street_or_desc": "narrm ngarrgu Library - Level 1 - Lift 1", "installation_date": "2023-10-23T00:00:00", "direction_1": "In", "direction_2": "Out", "status": "A", "lat": -37.80760657, "lon": 144.95862847000001 }, "geometry": { "type": "Point", "coordinates": [ 144.95862847, -37.80760657 ] } },
{ "type": "Feature", "properties": { "location_id": 146, "sensor_name": "narrLibL1L3_T", "street_or_desc": "narrm ngarrgu Library - Level 1 - Lift 3", "installation_date": "2023-10-23T00:00:00", "direction_1": null, "direction_2": null, "status": "A", "lat": -37.80766922, "lon": 144.95840594000001 }, "geometry": { "type": "Point", "coordinates": [ 144.95840594, -37.80766922 ] } },
{ "type": "Feature", "properties": { "location_id": 150, "sensor_name": "narrLibL1MB_T", "street_or_desc": "narrm ngarrgu Library - Level 1 Main Stairs B", "installation_date": "2023-10-23T00:00:00", "direction_1": null, "direction_2": null, "status": "A", "lat": -37.80791198, "lon": 144.95820087000001 }, "geometry": { "type": "Point", "coordinates": [ 144.958200870000013, -37.80791198 ] } },
{ "type": "Feature", "properties": { "location_id": 151, "sensor_name": "narrLibL2CA_T", "street_or_desc": "narrm ngarrgu Library - Level 2 - Collections Stairs A", "installation_date": "2023-10-23T00:00:00", "direction_1": "In", "direction_2": "Out", "status": "A", "lat": -37.80771581, "lon": 144.9586238 }, "geometry": { "type": "Point", "coordinates": [ 144.9586238, -37.80771581 ] } },
{ "type": "Feature", "properties": { "location_id": 154, "sensor_name": "narrLibL3C1_T", "street_or_desc": "narrm ngarrgu Library - Level 3 Children's Library Door 1", "installation_date": "2023-10-23T00:00:00", "direction_1": "In", "direction_2": "Out", "status": "A", "lat": -37.80778437, "lon": 144.95862772000001 }, "geometry": { "type": "Point", "coordinates": [ 144.95862772000001, -37.80778437 ] } },
{ "type": "Feature", "properties": { "location_id": 155, "sensor_name": "narrLibL#C2_T", "street_or_desc": "narrm ngarrgu Library - Level 3 Children's Library Door 2", "installation_date": "2023-10-23T00:00:00", "direction_1": null, "direction_2": null, "status": "A", "lat": -37.80783201, "lon": 144.95845043 }, "geometry": { "type": "Point", "coordinates": [ 144.95845043, -37.80783201 ] } },
{ "type": "Feature", "properties": { "location_id": 160, "sensor_name": "Swa420_T", "street_or_desc": "City Baths, 420 Swanston Street - Main Entry", "installation_date": "2024-06-04T00:00:00", "direction_1": null, "direction_2": null, "status": "A", "lat": -37.80699526, "lon": 144.96306214000001 }, "geometry": { "type": "Point", "coordinates": [ 144.96306214, -37.80699526 ] } },
{ "type": "Feature", "properties": { "location_id": 161, "sensor_name": "BirArt1109_T", "street_or_desc": "Birrarung Marr - COM - Pole 1109", "installation_date": "2024-06-04T00:00:00", "direction_1": "East", "direction_2": "West", "status": "A", "lat": -37.81851276, "lon": 144.97131336000001 }, "geometry": { "type": "Point", "coordinates": [ 144.971313360000011, -37.81851276 ] } },
{ "type": "Feature", "properties": { "location_id": 165, "sensor_name": "Spen475_T", "street_or_desc": "475 Spencer Street", "installation_date": "2024-08-14T00:00:00", "direction_1": "North", "direction_2": "South", "status": "A", "lat": -37.80953359, "lon": 144.94939004 }, "geometry": { "type": "Point", "coordinates": [ 144.94939004, -37.80953359 ] } },
{ "type": "Feature", "properties": { "location_id": 181, "sensor_name": "Eli368_T", "street_or_desc": "368 Elizabeth Street", "installation_date": "2025-03-26T00:00:00", "direction_1": "North", "direction_2": "South", "status": "A", "lat": -37.81009465, "lon": 144.96143149 }, "geometry": { "type": "Point", "coordinates": [ 144.96143149, -37.81009465 ] } },
{ "type": "Feature", "properties": { "location_id": 184, "sensor_name": "Eli124_T", "street_or_desc": "124 Elizabeth Street", "installation_date": "2025-06-28T00:00:00", "direction_1": "In", "direction_2": "Out", "status": "A", "lat": -37.81512416, "lon": 144.96371988000001 }, "geometry": { "type": "Point", "coordinates": [ 144.963719880000014, -37.81512416 ] } },
{ "type": "Feature", "properties": { "location_id": 184, "sensor_name": "Eli124_T", "street_or_desc": "124 Elizabeth Street", "installation_date": "2025-06-28T00:00:00", "direction_1": "North", "direction_2": "InOut", "status": "A", "lat": -37.81512416, "lon": 144.96371988000001 }, "geometry": { "type": "Point", "coordinates": [ 144.963719880000014, -37.81512416 ] } },
{ "type": "Feature", "properties": { "location_id": 185, "sensor_name": "Eli197_T", "street_or_desc": "197 Elizabeth Street", "installation_date": "2025-06-28T00:00:00", "direction_1": "North", "direction_2": "InOut", "status": "A", "lat": -37.81374643, "lon": 144.96276183000001 }, "geometry": { "type": "Point", "coordinates": [ 144.96276183, -37.81374643 ] } },
{ "type": "Feature", "properties": { "location_id": 2, "sensor_name": "Bou283_T", "street_or_desc": "Bourke Street Mall (South)", "installation_date": "2009-03-30T00:00:00", "direction_1": "East", "direction_2": "West", "status": "A", "lat": -37.81380668, "lon": 144.96516718000001 }, "geometry": { "type": "Point", "coordinates": [ 144.96516718, -37.81380668 ] } },
{ "type": "Feature", "properties": { "location_id": 6, "sensor_name": "FliS_T", "street_or_desc": "Flinders Street Station Underpass", "installation_date": "2009-03-25T00:00:00", "direction_1": "North", "direction_2": "South", "status": "A", "lat": -37.81911705, "lon": 144.96558255 }, "geometry": { "type": "Point", "coordinates": [ 144.96558255, -37.81911705 ] } },
{ "type": "Feature", "properties": { "location_id": 8, "sensor_name": "WebBN_T", "street_or_desc": "Webb Bridge", "installation_date": "2009-03-24T00:00:00", "direction_1": "North", "direction_2": "South", "status": "A", "lat": -37.82293543, "lon": 144.9471751 }, "geometry": { "type": "Point", "coordinates": [ 144.94717510000001, -37.82293543 ] } },
{ "type": "Feature", "properties": { "location_id": 17, "sensor_name": "Col15_T", "street_or_desc": "Collins Place (South)", "installation_date": "2009-03-30T00:00:00", "direction_1": "East", "direction_2": "West", "status": "A", "lat": -37.81362543, "lon": 144.97323591 }, "geometry": { "type": "Point", "coordinates": [ 144.97323591, -37.81362543 ] } },
{ "type": "Feature", "properties": { "location_id": 21, "sensor_name": "Bourke155_T", "street_or_desc": "155-161 Russell Street", "installation_date": "2013-09-02T00:00:00", "direction_1": "North", "direction_2": "South", "status": "A", "lat": -37.81267313, "lon": 144.96788288 }, "geometry": { "type": "Point", "coordinates": [ 144.96788288, -37.81267313 ] } },
{ "type": "Feature", "properties": { "location_id": 23, "sensor_name": "Col623_T", "street_or_desc": "Spencer St-Collins St (South)", "installation_date": "2013-09-02T00:00:00", "direction_1": "East", "direction_2": "West", "status": "A", "lat": -37.81909256, "lon": 144.95452748 }, "geometry": { "type": "Point", "coordinates": [ 144.95452748, -37.81909256 ] } },
{ "type": "Feature", "properties": { "location_id": 25, "sensor_name": "MCEC_T", "street_or_desc": "Melbourne Convention Exhibition Centre", "installation_date": "2013-08-28T00:00:00", "direction_1": "East", "direction_2": "West", "status": "A", "lat": -37.82401776, "lon": 144.95604426 }, "geometry": { "type": "Point", "coordinates": [ 144.95604426, -37.82401776 ] } },
{ "type": "Feature", "properties": { "location_id": 29, "sensor_name": "AG_T", "street_or_desc": "St Kilda Rd-Alexandra Gardens", "installation_date": "2013-10-11T00:00:00", "direction_1": "North", "direction_2": "South", "status": "A", "lat": -37.8199817, "lon": 144.96872865 }, "geometry": { "type": "Point", "coordinates": [ 144.96872865, -37.8199817 ] } },
{ "type": "Feature", "properties": { "location_id": 30, "sensor_name": "Lon189_T", "street_or_desc": "Lonsdale St (South)", "installation_date": "2013-10-14T00:00:00", "direction_1": "East", "direction_2": "West", "status": "A", "lat": -37.8112185, "lon": 144.96656806 }, "geometry": { "type": "Point", "coordinates": [ 144.966568059999986, -37.8112185 ] } },
{ "type": "Feature", "properties": { "location_id": 35, "sensor_name": "SouthB_T", "street_or_desc": "Southbank", "installation_date": "2016-04-11T00:00:00", "direction_1": "East", "direction_2": "West", "status": "A", "lat": -37.82018685, "lon": 144.96508508 }, "geometry": { "type": "Point", "coordinates": [ 144.96508508, -37.82018685 ] } },
{ "type": "Feature", "properties": { "location_id": 37, "sensor_name": "Lyg260_T", "street_or_desc": "Lygon St (East)", "installation_date": "2015-02-11T00:00:00", "direction_1": "North", "direction_2": "South", "status": "A", "lat": -37.80107122, "lon": 144.96704554 }, "geometry": { "type": "Point", "coordinates": [ 144.967045539999987, -37.80107122 ] } },
{ "type": "Feature", "properties": { "location_id": 40, "sensor_name": "Spr201_T", "street_or_desc": "Lonsdale St-Spring St (West)", "installation_date": "2015-01-19T00:00:00", "direction_1": "North", "direction_2": "South", "status": "A", "lat": -37.80999341, "lon": 144.97227587 }, "geometry": { "type": "Point", "coordinates": [ 144.97227587, -37.80999341 ] } },
{ "type": "Feature", "properties": { "location_id": 42, "sensor_name": "UM1_T", "street_or_desc": "Grattan St-Swanston St (West)", "installation_date": "2015-04-15T00:00:00", "direction_1": "North", "direction_2": "South", "status": "A", "lat": -37.80008566, "lon": 144.96386412000001 }, "geometry": { "type": "Point", "coordinates": [ 144.963864120000011, -37.80008566 ] } },
{ "type": "Feature", "properties": { "location_id": 63, "sensor_name": "Bou231_T", "street_or_desc": "231 Bourke St", "installation_date": "2020-01-07T00:00:00", "direction_1": "East", "direction_2": "West", "status": "A", "lat": -37.81333081, "lon": 144.96675571 }, "geometry": { "type": "Point", "coordinates": [ 144.96675571, -37.81333081 ] } },
{ "type": "Feature", "properties": { "location_id": 66, "sensor_name": "QVN_T", "street_or_desc": "State Library - New", "installation_date": "2020-04-06T00:00:00", "direction_1": "North", "direction_2": "South", "status": "A", "lat": -37.81057846, "lon": 144.96444294 }, "geometry": { "type": "Point", "coordinates": [ 144.96444294, -37.81057846 ] } },
{ "type": "Feature", "properties": { "location_id": 67, "sensor_name": "FLDegS_T", "street_or_desc": "Flinders Ln -Degraves St (South)", "installation_date": "2020-06-03T00:00:00", "direction_1": "East", "direction_2": "West", "status": "A", "lat": -37.81688755, "lon": 144.96562569 }, "geometry": { "type": "Point", "coordinates": [ 144.96562569, -37.81688755 ] } },
{ "type": "Feature", "properties": { "location_id": 70, "sensor_name": "Errol20_T", "street_or_desc": "Errol Street (East)", "installation_date": "2020-10-12T00:00:00", "direction_1": "North", "direction_2": "South", "status": "A", "lat": -37.80456984, "lon": 144.94946228000001 }, "geometry": { "type": "Point", "coordinates": [ 144.94946228, -37.80456984 ] } },
{ "type": "Feature", "properties": { "location_id": 71, "sensor_name": "WestWP_T", "street_or_desc": "Westwood Place", "installation_date": "2020-10-16T00:00:00", "direction_1": "North", "direction_2": "South", "status": "A", "lat": -37.81235775, "lon": 144.97136962 }, "geometry": { "type": "Point", "coordinates": [ 144.97136962, -37.81235775 ] } },
{ "type": "Feature", "properties": { "location_id": 76, "sensor_name": "KenMac_T", "street_or_desc": "Macaulay Rd- Bellair St", "installation_date": "2021-02-20T00:00:00", "direction_1": "East", "direction_2": "West", "status": "A", "lat": -37.79453803, "lon": 144.93036194000001 }, "geometry": { "type": "Point", "coordinates": [ 144.930361940000012, -37.79453803 ] } },
{ "type": "Feature", "properties": { "location_id": 78, "sensor_name": "HarEsB_T", "street_or_desc": "Harbour Esplanade (West) - Bike Path", "installation_date": "2021-03-30T00:00:00", "direction_1": "North", "direction_2": "South", "status": "A", "lat": -37.81471642, "lon": 144.9446508 }, "geometry": { "type": "Point", "coordinates": [ 144.9446508, -37.81471642 ] } },
{ "type": "Feature", "properties": { "location_id": 92, "sensor_name": "DocLib2_T", "street_or_desc": "Library at The Dock-South side", "installation_date": "2015-06-05T00:00:00", "direction_1": null, "direction_2": null, "status": "A", "lat": -37.82016286, "lon": 144.94039584000001 }, "geometry": { "type": "Point", "coordinates": [ 144.94039584, -37.82016286 ] } },
{ "type": "Feature", "properties": { "location_id": 99, "sensor_name": "TownVis_T", "street_or_desc": "Town Hall Visitor Centre", "installation_date": "2020-02-02T00:00:00", "direction_1": null, "direction_2": null, "status": "A", "lat": -37.81462143, "lon": 144.96623279 }, "geometry": { "type": "Point", "coordinates": [ 144.96623279, -37.81462143 ] } },
{ "type": "Feature", "properties": { "location_id": 104, "sensor_name": "KatLib1_T", "street_or_desc": "Kathleen Syme Library Main", "installation_date": "2018-02-02T00:00:00", "direction_1": null, "direction_2": null, "status": "A", "lat": -37.79863553, "lon": 144.96548206 }, "geometry": { "type": "Point", "coordinates": [ 144.96548206, -37.79863553 ] } },
{ "type": "Feature", "properties": { "location_id": 106, "sensor_name": "KatLib3_T", "street_or_desc": "Kathleen Syme Library Cafe", "installation_date": "2018-02-02T00:00:00", "direction_1": null, "direction_2": null, "status": "A", "lat": -37.79859459, "lon": 144.96510921000001 }, "geometry": { "type": "Point", "coordinates": [ 144.96510921, -37.79859459 ] } },
{ "type": "Feature", "properties": { "location_id": 108, "sensor_name": "261Will_T", "street_or_desc": "William St - Little Lonsdale St (West)", "installation_date": "2022-10-08T00:00:00", "direction_1": "In", "direction_2": "Out", "status": "A", "lat": -37.81295822, "lon": 144.95678789 }, "geometry": { "type": "Point", "coordinates": [ 144.956787889999987, -37.81295822 ] } },
{ "type": "Feature", "properties": { "location_id": 108, "sensor_name": "261Will_T", "street_or_desc": "William St - Little Lonsdale St (West)", "installation_date": "2022-10-08T00:00:00", "direction_1": "North", "direction_2": "InOut", "status": "A", "lat": -37.81295822, "lon": 144.95678789 }, "geometry": { "type": "Point", "coordinates": [ 144.956787889999987, -37.81295822 ] } },
{ "type": "Feature", "properties": { "location_id": 118, "sensor_name": "Fli114C_T", "street_or_desc": "114 Flinders Street Car Park Crossing", "installation_date": "2022-12-06T00:00:00", "direction_1": "North", "direction_2": "South", "status": "A", "lat": -37.81632783, "lon": 144.97090512 }, "geometry": { "type": "Point", "coordinates": [ 144.97090512, -37.81632783 ] } },
{ "type": "Feature", "properties": { "location_id": 130, "sensor_name": "Bou892T", "street_or_desc": "I-Hub 892 Bourke Street", "installation_date": "2023-09-25T00:00:00", "direction_1": "East", "direction_2": "West", "status": "A", "lat": -37.8204637, "lon": 144.94126826 }, "geometry": { "type": "Point", "coordinates": [ 144.941268259999987, -37.8204637 ] } },
{ "type": "Feature", "properties": { "location_id": 131, "sensor_name": "King2_T", "street_or_desc": "I-Hub Corner of King Street and Flinders Street (2-6 King)", "installation_date": "2023-09-25T00:00:00", "direction_1": "North", "direction_2": "South", "status": "A", "lat": -37.82009057, "lon": 144.95758725 }, "geometry": { "type": "Point", "coordinates": [ 144.957587249999989, -37.82009057 ] } },
{ "type": "Feature", "properties": { "location_id": 134, "sensor_name": "Spen201_T", "street_or_desc": "I-Hub Southern Cross Station - Bourke Street Entrance - North", "installation_date": "2023-09-25T00:00:00", "direction_1": "North", "direction_2": "South", "status": "A", "lat": -37.81694221, "lon": 144.95303935000001 }, "geometry": { "type": "Point", "coordinates": [ 144.953039350000012, -37.81694221 ] } },
{ "type": "Feature", "properties": { "location_id": 143, "sensor_name": "Spencer_T", "street_or_desc": "Mounted on Toilet - Spencer Street, Batman Park", "installation_date": "2024-04-10T00:00:00", "direction_1": "North", "direction_2": "South", "status": "A", "lat": -37.821728, "lon": 144.95557015 }, "geometry": { "type": "Point", "coordinates": [ 144.95557015, -37.821728 ] } },
{ "type": "Feature", "properties": { "location_id": 145, "sensor_name": "narrLibL1L2_T", "street_or_desc": "narrm ngarrgu Library - Level 1 - Lift 2", "installation_date": "2023-10-23T00:00:00", "direction_1": null, "direction_2": null, "status": "A", "lat": -37.80763871, "lon": 144.95850722 }, "geometry": { "type": "Point", "coordinates": [ 144.95850722, -37.80763871 ] } },
{ "type": "Feature", "properties": { "location_id": 147, "sensor_name": "narrLibMRL1_T", "street_or_desc": "narrm ngarrgu Library - Level 1 - Meeting Room Lift 1", "installation_date": "2023-10-23T00:00:00", "direction_1": null, "direction_2": null, "status": "A", "lat": -37.80769805, "lon": 144.95832131 }, "geometry": { "type": "Point", "coordinates": [ 144.95832131, -37.80769805 ] } },
{ "type": "Feature", "properties": { "location_id": 152, "sensor_name": "narrLibL2S1_T", "street_or_desc": "narrm ngarrgu Library - Level 2 - Study Area Lifts 1", "installation_date": "2023-10-23T00:00:00", "direction_1": null, "direction_2": null, "status": "A", "lat": -37.80776728, "lon": 144.95843977000001 }, "geometry": { "type": "Point", "coordinates": [ 144.958439770000012, -37.80776728 ] } },
{ "type": "Feature", "properties": { "location_id": 159, "sensor_name": "Eli516_T", "street_or_desc": "516 Elizeberth Street", "installation_date": "2024-01-29T00:00:00", "direction_1": null, "direction_2": null, "status": "A", "lat": -37.80651646, "lon": 144.96007934 }, "geometry": { "type": "Point", "coordinates": [ 144.96007934, -37.80651646 ] } },
{ "type": "Feature", "properties": { "location_id": 162, "sensor_name": "Eli489_T", "street_or_desc": "iHub 489 Elizabeth Street", "installation_date": "2024-07-01T00:00:00", "direction_1": "North", "direction_2": "South", "status": "A", "lat": -37.80740397, "lon": 144.95987909 }, "geometry": { "type": "Point", "coordinates": [ 144.959879089999987, -37.80740397 ] } },
{ "type": "Feature", "properties": { "location_id": 166, "sensor_name": "Spen484_T", "street_or_desc": "484 Spencer Street", "installation_date": "2024-09-25T00:00:00", "direction_1": "North", "direction_2": "South", "status": "A", "lat": -37.80896733, "lon": 144.94931703 }, "geometry": { "type": "Point", "coordinates": [ 144.94931703, -37.80896733 ] } },
{ "type": "Feature", "properties": { "location_id": 167, "sensor_name": "Lat526_T", "street_or_desc": "I-Hub 526 La Trobe Street (Crossing)", "installation_date": "2024-08-14T00:00:00", "direction_1": "North", "direction_2": "South", "status": "A", "lat": -37.81304149, "lon": 144.95155955000001 }, "geometry": { "type": "Point", "coordinates": [ 144.951559550000013, -37.81304149 ] } },
{ "type": "Feature", "properties": { "location_id": 179, "sensor_name": "Pow61_T", "street_or_desc": "61-67 Power Street Southbank", "installation_date": "2024-12-19T00:00:00", "direction_1": "North", "direction_2": "South", "status": "A", "lat": -37.82392385, "lon": 144.96299677 }, "geometry": { "type": "Point", "coordinates": [ 144.96299677, -37.82392385 ] } },
{ "type": "Feature", "properties": { "location_id": 182, "sensor_name": "King163_T", "street_or_desc": "163 King Street", "installation_date": "2025-04-11T00:00:00", "direction_1": "In", "direction_2": "Out", "status": "A", "lat": -37.81627451, "lon": 144.95550503000001 }, "geometry": { "type": "Point", "coordinates": [ 144.955505030000012, -37.81627451 ] } },
{ "type": "Feature", "properties": { "location_id": 182, "sensor_name": "King163_T", "street_or_desc": "163 King Street", "installation_date": "2025-04-11T00:00:00", "direction_1": "North", "direction_2": "InOut", "status": "A", "lat": -37.81627451, "lon": 144.95550503000001 }, "geometry": { "type": "Point", "coordinates": [ 144.955505030000012, -37.81627451 ] } },
{ "type": "Feature", "properties": { "location_id": 182, "sensor_name": "King163_T", "street_or_desc": "163 King Street", "installation_date": "2025-04-11T00:00:00", "direction_1": "North", "direction_2": "South", "status": "A", "lat": -37.81627451, "lon": 144.95550503000001 }, "geometry": { "type": "Point", "coordinates": [ 144.955505030000012, -37.81627451 ] } },
{ "type": "Feature", "properties": { "location_id": 184, "sensor_name": "Eli124_T", "street_or_desc": "124 Elizabeth Street", "installation_date": "2025-06-28T00:00:00", "direction_1": "North", "direction_2": "South", "status": "A", "lat": -37.81512416, "lon": 144.96371988000001 }, "geometry": { "type": "Point", "coordinates": [ 144.963719880000014, -37.81512416 ] } }
]
}
